NORAD_CAT_ID,OBJECT_NAME,OBJECT_TYPE,EPOCH,MEAN_MOTION,ECCENTRICITY,INCLINATION,RA_OF_ASC_NODE,ARG_OF_PERICENTER,MEAN_ANOMALY,BSTAR,MEAN_MOTION_DOT,MEAN_MOTION_DDOT,TLE_LINE0,TLE_LINE1,TLE_LINE2,SEMIMAJOR_AXIS,PERIOD,APOGEE,PERIGEE,DECAYED
55306.0,STARLINK-5295,PAYLOAD,2023-06-17 15:45:13,15.69930174,0.0003684,69.9985,9.6377,270.8635,89.2139,2.497e-05,2.791e-05,0.0,0 STARLINK-5295,1 55306U 23010AP  23168.65640717  .00002791  00000-0  24970-4 0  9996,2 55306  69.9985   9.6377 0003684 270.8635  89.2139 15.69930174 24239,6737.234,91.724,361.581,356.617,0.0
55306.0,STARLINK-5295,PAYLOAD,2023-06-17 23:23:58,15.69946422,0.000369,69.9985,8.7417,270.9369,89.1404,4.4785e-05,5.181e-05,0.0,0 STARLINK-5295,1 55306U 23010AP  23168.97498185  .00005181  00000-0  44785-4 0  9993,2 55306  69.9985   8.7417 0003690 270.9369  89.1404 15.69946422 23962,6737.187,91.723,361.538,356.566,0.0
55306.0,STARLINK-5295,PAYLOAD,2023-06-18 07:02:44,15.69924348,0.0003698,69.9977,7.8478,276.0795,83.998,1.5853e-05,1.694e-05,0.0,0 STARLINK-5295,1 55306U 23010AP  23169.29357560  .00001694  00000-0  15853-4 0  9999,2 55306  69.9977   7.8478 0003698 276.0795  83.9980 15.69924348 24019,6737.25,91.724,361.607,356.624,0.0
55306.0,STARLINK-5295,PAYLOAD,2023-06-18 13:09:45,15.69925461,0.0003568,69.9987,7.1303,272.4447,87.6341,2.6803e-05,3.011e-05,0.0,0 STARLINK-5295,1 55306U 23010AP  23169.54844227  .00003011  00000-0  26803-4 0  9990,2 55306  69.9987   7.1303 0003568 272.4447  87.6341 15.69925461 24378,6737.247,91.724,361.516,356.708,0.0
55306.0,STARLINK-5295,PAYLOAD,2023-06-18 19:16:45,15.69930082,0.0003598,69.9988,6.4132,271.0772,89.0012,3.3888e-05,3.865e-05,0.0,0 STARLINK-5295,1 55306U 23010AP  23169.80330688  .00003865  00000-0  33888-4 0  9998,2 55306  69.9988   6.4132 0003598 271.0772  89.0012 15.69930082 24411,6737.234,91.724,361.523,356.675,0.0
55306.0,STARLINK-5295,PAYLOAD,2023-06-19 12:06:02,15.69919428,0.0003498,69.9983,4.4427,273.9343,86.1452,-1.5557e-05,-2.083e-05,0.0,0 STARLINK-5295,1 55306U 23010AP  23170.50419464 -.00002083  00000-0 -15557-4 0  9993,2 55306  69.9983   4.4427 0003498 273.9343  86.1452 15.69919428 24209,6737.265,91.724,361.486,356.773,0.0
55306.0,STARLINK-5295,PAYLOAD,2023-06-20 06:27:03,15.69926312,0.0003149,69.9999,2.2925,269.1226,90.9609,2.1493e-05,2.373e-05,0.0,0 STARLINK-5295,1 55306U 23010AP  23171.26879388  .00002373  00000-0  21493-4 0  9998,2 55306  69.9999   2.2925 0003149 269.1226  90.9609 15.69926312 24325,6737.245,91.724,361.231,356.988,0.0
55306.0,STARLINK-5295,PAYLOAD,2023-06-20 12:34:04,15.69924203,0.0003425,69.9986,1.5748,266.9462,93.1341,9.6647e-06,9.49e-06,0.0,0 STARLINK-5295,1 55306U 23010AP  23171.52366056  .00000949  00000-0  96647-5 0  9991,2 55306  69.9986   1.5748 0003425 266.9462  93.1341 15.69924203 24684,6737.251,91.724,361.423,356.808,0.0
55306.0,STARLINK-5295,PAYLOAD,2023-06-20 20:12:49,15.69928082,0.0003275,70.0002,0.6787,265.2858,94.7963,1.1544e-05,1.176e-05,0.0,0 STARLINK-5295,1 55306U 23010AP  23171.84224222  .00001176  00000-0  11544-4 0  9999,2 55306  70.0002   0.6787 0003275 265.2858  94.7963 15.69928082 24735,6737.24,91.724,361.311,356.898,0.0
55306.0,STARLINK-5295,PAYLOAD,2023-06-21 13:02:06,15.69922663,0.0003278,69.9999,358.7099,270.9928,89.0892,1.6264e-05,1.743e-05,0.0,0 STARLINK-5295,1 55306U 23010AP  23172.54313047  .00001743  00000-0  16264-4 0  9995,2 55306  69.9999 358.7099 0003278 270.9928  89.0892 15.69922663 24528,6737.255,91.724,361.329,356.912,0.0
55306.0,STARLINK-5295,PAYLOAD,2023-06-21 19:09:06,15.69932109,0.0003798,69.9993,357.9937,269.2319,90.8441,3.1089e-05,3.528e-05,0.0,0 STARLINK-5295,1 55306U 23010AP  23172.79799152  .00003528  00000-0  31089-4 0  9992,2 55306  69.9993 357.9937 0003798 269.2319  90.8441 15.69932109 24881,6737.228,91.724,361.652,356.534,0.0
55306.0,STARLINK-5295,PAYLOAD,2023-06-21 22:12:37,15.69911258,0.0003396,69.9986,357.6325,274.2902,85.7905,-1.6904e-05,-2.244e-05,0.0,0 STARLINK-5295,1 55306U 23010AP  23172.92543553 -.00002244  00000-0 -16904-4 0  9994,2 55306  69.9986 357.6325 0003396 274.2902  85.7905 15.69911258 24586,6737.288,91.725,361.441,356.865,0.0
55306.0,STARLINK-5295,PAYLOAD,2023-06-22 05:51:23,15.69917392,0.0003597,69.9974,356.7383,269.3455,90.7329,-3.8064e-06,-6.7e-06,0.0,0 STARLINK-5295,1 55306U 23010AP  23173.24401672 -.00000670  00000-0 -38064-5 0  9998,2 55306  69.9974 356.7383 0003597 269.3455  90.7329 15.69917392 24635,6737.27,91.725,361.559,356.712,0.0
55306.0,STARLINK-5295,PAYLOAD,2023-06-22 16:33:38,15.69931264,0.0003879,69.9988,355.4867,274.6437,85.4316,3.9109e-05,4.494e-05,0.0,0 STARLINK-5295,1 55306U 23010AP  23173.69002735  .00004494  00000-0  39109-4 0  9990,2 55306  69.9988 355.4867 0003879 274.6437  85.4316 15.69931264 24704,6737.231,91.724,361.709,356.482,0.0
55306.0,STARLINK-5295,PAYLOAD,2023-06-23 10:54:40,15.69914933,0.0003574,69.9995,353.3357,277.3455,82.7335,-9.5833e-06,-1.365e-05,0.0,0 STARLINK-5295,1 55306U 23010AP  23174.45463664 -.00001365  00000-0 -95833-5 0  9990,2 55306  69.9995 353.3357 0003574 277.3455  82.7335 15.69914933 24823,6737.277,91.725,361.55,356.734,0.0
55306.0,STARLINK-5295,PAYLOAD,2023-06-23 21:36:55,15.69934422,0.0003785,69.9994,352.0806,271.544,88.5322,2.7389e-05,3.083e-05,0.0,0 STARLINK-5295,1 55306U 23010AP  23174.90064433  .00003083  00000-0  27389-4 0  9998,2 55306  69.9994 352.0806 0003785 271.5440  88.5322 15.69934422 24893,6737.222,91.724,361.637,356.537,0.0
55306.0,STARLINK-5295,PAYLOAD,2023-06-24 15:57:57,15.69917541,0.0003776,69.9993,349.9303,267.3599,92.7164,-1.4165e-07,-2.3e-06,0.0,0 STARLINK-5295,1 55306U 23010AP  23175.66525229 -.00000230  00000-0 -14165-6 0  9990,2 55306  69.9993 349.9303 0003776 267.3599  92.7164 15.69917541 25016,6737.27,91.725,361.679,356.591,0.0
55306.0,STARLINK-5295,PAYLOAD,2023-06-24 20:33:12,15.69932134,0.000386,69.999,349.3948,262.4586,97.6171,2.157e-05,2.382e-05,0.0,0 STARLINK-5295,1 55306U 23010AP  23175.85639477  .00002382  00000-0  21570-4 0  9996,2 55306  69.9990 349.3948 0003860 262.4586  97.6171 15.69932134 25048,6737.228,91.724,361.694,356.493,0.0
55306.0,STARLINK-5295,PAYLOAD,2023-06-25 17:57:44,15.69932427,0.0003233,69.9995,346.8859,269.479,90.6035,4.2678e-05,4.924e-05,0.0,0 STARLINK-5295,1 55306U 23010AP  23176.74843025  .00004924  00000-0  42678-4 0  9997,2 55306  69.9995 346.8859 0003233 269.4790  90.6035 15.69932427 25186,6737.227,91.724,361.27,356.914,0.0
55306.0,STARLINK-5295,PAYLOAD,2023-06-25 21:01:15,15.6991419,0.0003399,69.9989,346.5262,270.8488,89.2318,-1.2754e-05,-1.745e-05,0.0,0 STARLINK-5295,1 55306U 23010AP  23176.87587125 -.00001745  00000-0 -12754-4 0  9999,2 55306  69.9989 346.5262 0003399 270.8488  89.2318 15.69914190 25205,6737.28,91.725,361.435,356.854,0.0
55306.0,STARLINK-5295,PAYLOAD,2023-06-26 15:22:16,15.69921808,0.0003377,69.9994,344.3766,275.7555,84.3255,1.6596e-05,1.783e-05,0.0,0 STARLINK-5295,1 55306U 23010AP  23177.64047043  .00001783  00000-0  16596-4 0  9993,2 55306  69.9994 344.3766 0003377 275.7555  84.3255 15.69921808 25324,6737.258,91.724,361.398,356.848,0.0
55306.0,STARLINK-5295,PAYLOAD,2023-06-26 19:57:31,15.69931436,0.0003441,69.999,343.8386,271.1099,88.9703,3.2395e-05,3.685e-05,0.0,0 STARLINK-5295,1 55306U 23010AP  23177.83161565  .00003685  00000-0  32395-4 0  9998,2 55306  69.9990 343.8386 0003441 271.1099  88.9703 15.69931436 25356,6737.23,91.724,361.413,356.777,0.0
55306.0,STARLINK-5295,PAYLOAD,2023-06-27 20:25:33,15.69929699,0.000379,69.9988,340.9738,271.7709,88.3052,9.6764e-06,9.51e-06,0.0,0 STARLINK-5295,1 55306U 23010AP  23178.85108348  .00000951  00000-0  96764-5 0  9995,2 55306  69.9988 340.9738 0003790 271.7709  88.3052 15.69929699 25510,6737.235,91.724,361.654,356.547,0.0
55306.0,STARLINK-5295,PAYLOAD,2023-06-28 04:04:19,15.6992111,0.0003575,69.9977,340.0785,269.1592,90.9194,-4.1068e-06,-7.07e-06,0.0,0 STARLINK-5295,1 55306U 23010AP  23179.16967249 -.00000707  00000-0 -41068-5 0  9991,2 55306  69.9977 340.0785 0003575 269.1592  90.9194 15.69921110 25564,6737.26,91.724,361.533,356.716,0.0
55306.0,STARLINK-5295,PAYLOAD,2023-06-28 13:14:50,15.69929357,0.0003602,69.9982,339.0026,271.791,88.2873,8.0801e-06,7.59e-06,0.0,0 STARLINK-5295,1 55306U 23010AP  23179.55196776  .00000759  00000-0  80801-5 0  9996,2 55306  69.9982 339.0026 0003602 271.7910  88.2873 15.69929357 25622,6737.236,91.724,361.528,356.674,0.0
55306.0,STARLINK-5295,PAYLOAD,2023-06-29 18:18:07,15.69933398,0.0003377,69.9986,335.5981,265.587,94.494,8.4936e-06,8.09e-06,0.0,0 STARLINK-5295,1 55306U 23010AP  23180.76258338  .00000809  00000-0  84936-5 0  9993,2 55306  69.9986 335.5981 0003377 265.5870  94.4940 15.69933398 25817,6737.225,91.724,361.365,356.814,0.0
55306.0,STARLINK-5295,PAYLOAD,2023-06-30 20:17:54,15.69911863,0.0003303,69.9987,332.5523,272.1176,87.9642,-2.2234e-05,-2.884e-05,0.0,0 STARLINK-5295,1 55306U 23010AP  23181.84577506 -.00002884  00000-0 -22234-4 0  9993,2 55306  69.9987 332.5523 0003303 272.1176  87.9642 15.69911863 25986,6737.286,91.725,361.376,356.926,0.0
55306.0,STARLINK-5295,PAYLOAD,2023-07-01 17:42:26,15.69921824,0.0003405,69.9989,330.0438,265.6283,94.4523,-2.8797e-06,-5.59e-06,0.0,0 STARLINK-5295,1 55306U 23010AP  23182.73780794 -.00000559  00000-0 -28797-5 0  9995,2 55306  69.9989 330.0438 0003405 265.6283  94.4523 15.69921824 26121,6737.258,91.724,361.417,356.829,0.0
55306.0,STARLINK-5295,PAYLOAD,2023-07-01 19:14:11,15.69931412,0.0003538,69.999,329.8657,271.0082,89.0708,1.3999e-05,1.471e-05,0.0,0 STARLINK-5295,1 55306U 23010AP  23182.80152013  .00001471  00000-0  13999-4 0  9999,2 55306  69.9990 329.8657 0003538 271.0082  89.0708 15.69931412 26137,6737.23,91.724,361.479,356.712,0.0
55306.0,STARLINK-5295,PAYLOAD,2023-07-02 10:31:43,15.69926424,0.000294,70.0016,328.0759,271.2862,88.7997,1.738e-05,1.878e-05,0.0,0 STARLINK-5295,1 55306U 23010AP  23183.43869238  .00001878  00000-0  17380-4 0  9992,2 55306  70.0016 328.0759 0002940 271.2862  88.7997 15.69926424 26231,6737.244,91.724,361.09,357.129,0.0
